1 32315U 99025CXG 13065.97293869  .00000088  00000-0  14608-3 0  9995
2 32315 100.7772 338.5141 0231699 026.5545 334.7514 13.64906855288734
1 32315U 99025CXG 13068.56297632  .00000164  00000-0  22442-3 0  9995
2 32315 100.7747 341.3921 0231505 020.2641 101.2816 13.64908015289089
1 32315U 99025CXG 13071.99635598  .00000150  00000-0  21038-3 0  9998
2 32315 100.7743 345.2017 0231491 011.8608 051.7663 13.64909517289556
